{"type":"FeatureCollection","features":[{"type":"Feature","properties":{"name":"7-11 Store Location","address":"Pico Blvd & South La Brea Avenue, Los Angeles, CA 90019, USA","site_type":"informal corner (NDLON map)","verification_status":"corroborated-business"},"geometry":{"type":"Point","coordinates":[-118.34466,34.04787]}},{"type":"Feature","properties":{"name":"Agoura Hills U-Haul Location","address":"28650 Canwood St, Agoura Hills, CA 91301, USA","site_type":"informal corner (NDLON map)","verification_status":"unconfirmed"},"geometry":{"type":"Point","coordinates":[-118.75057,34.14504]}},{"type":"Feature","properties":{"name":"Alhambra Home Depot Location","address":"500 S Marengo Ave, Alhambra, CA 91803, USA","site_type":"informal corner (NDLON map)","verification_status":"corroborated-business"},"geometry":{"type":"Point","coordinates":[-118.14061,34.0851]}},{"type":"Feature","properties":{"name":"Baja Ranch Supermarket Location","address":"475 Orange Grove Blvd, Pasadena, CA 91104, USA","site_type":"informal corner (NDLON map)","verification_status":"corroborated-business"},"geometry":{"type":"Point","coordinates":[-118.14062,34.15817]}},{"type":"Feature","properties":{"name":"Baldwin Park Home Depot Location","address":"3200 Puente Ave, Baldwin Park, CA 91706, USA","site_type":"informal corner (NDLON map)","verification_status":"corroborated-business"},"geometry":{"type":"Point","coordinates":[-117.95776,34.07255]}},{"type":"Feature","properties":{"name":"Burbank U-Haul Location","address":"924 S Victory Blvd, Burbank, CA 91506, USA","site_type":"informal corner (NDLON map)","verification_status":"corroborated-business"},"geometry":{"type":"Point","coordinates":[-118.30794,34.16731]}},{"type":"Feature","properties":{"name":"Chatsworth U-Haul Location","address":"21326 Devonshire St, Chatsworth, CA 91311, USA","site_type":"informal corner (NDLON map)","verification_status":"unconfirmed"},"geometry":{"type":"Point","coordinates":[-118.59601,34.25656]}},{"type":"Feature","properties":{"name":"City of Industry Home Depot Location","address":"18131 Gale Ave, City of Industry, CA 91748, USA","site_type":"informal corner (NDLON map)","verification_status":"corroborated-business"},"geometry":{"type":"Point","coordinates":[-117.90787,33.99601]}},{"type":"Feature","properties":{"name":"Compton Home Depot","address":"101 Towne Center Dr, Compton, CA 90220, USA","site_type":"informal corner (NDLON map)","verification_status":"corroborated-business"},"geometry":{"type":"Point","coordinates":[-118.22178,33.87998]}},{"type":"Feature","properties":{"name":"Construction Warehouse","address":"1682 W Mission Blvd, Pomona, CA 91766, USA","site_type":"informal corner (NDLON map)","verification_status":"unconfirmed"},"geometry":{"type":"Point","coordinates":[-117.77821,34.05354]}},{"type":"Feature","properties":{"name":"Culver City U-Haul Location","address":"6900 S Centinela Ave, Culver City, CA 90230, USA","site_type":"informal corner (NDLON map)","verification_status":"unconfirmed"},"geometry":{"type":"Point","coordinates":[-118.40063,33.98418]}},{"type":"Feature","properties":{"name":"Cypress Park Community Job Center (IDEPSCA)","address":"2055 N Figueroa St, Los Angeles, CA 90065","site_type":"formal city job center","verification_status":"corroborated-official"},"geometry":{"type":"Point","coordinates":[-118.22421,34.08256]}},{"type":"Feature","properties":{"name":"Cypress Park Home Depot Location","address":"2055 N Figueroa St, Los Angeles, CA 90065, USA","site_type":"informal corner (NDLON map)","verification_status":"corroborated-business"},"geometry":{"type":"Point","coordinates":[-118.22588,34.0835]}},{"type":"Feature","properties":{"name":"Downtown / Fashion District Job Center (IDEPSCA)","address":"121 E Pico Blvd, Los Angeles, CA 90015","site_type":"formal city job center","verification_status":"corroborated-official"},"geometry":{"type":"Point","coordinates":[-118.26011,34.03623]}},{"type":"Feature","properties":{"name":"Dunn Edwards Paint Store Downtown LA Location","address":"2021 S Hoover St, Los Angeles, CA 90007, USA","site_type":"informal corner (NDLON map)","verification_status":"unconfirmed"},"geometry":{"type":"Point","coordinates":[-118.28402,34.03762]}},{"type":"Feature","properties":{"name":"Dunn-Edwards Paint Store Location","address":"3897 E Colorado Blvd, Pasadena, CA 91107, USA","site_type":"informal corner (NDLON map)","verification_status":"unconfirmed"},"geometry":{"type":"Point","coordinates":[-118.06808,34.14816]}},{"type":"Feature","properties":{"name":"Dunn-Edwards Paint Store Location","address":"6315 Sepulveda Blvd, Van Nuys, CA 91411, USA","site_type":"informal corner (NDLON map)","verification_status":"corroborated-business"},"geometry":{"type":"Point","coordinates":[-118.46684,34.18521]}},{"type":"Feature","properties":{"name":"Dunn-Edwards Paint Store Location","address":"6254 Sepulveda Blvd, Van Nuys, CA 91411, USA","site_type":"informal corner (NDLON map)","verification_status":"corroborated-business"},"geometry":{"type":"Point","coordinates":[-118.46568,34.18457]}},{"type":"Feature","properties":{"name":"Dunn-Edwards Paint Store Location","address":"9167 Reseda Blvd, Northridge, CA 91324, USA","site_type":"informal corner (NDLON map)","verification_status":"corroborated-business"},"geometry":{"type":"Point","coordinates":[-118.53611,34.23685]}},{"type":"Feature","properties":{"name":"Dunn-Edwards Valley Paint Store Valley Glen Location","address":"12861 Sherman Way, Valley Glen, CA 91605, USA","site_type":"informal corner (NDLON map)","verification_status":"unconfirmed"},"geometry":{"type":"Point","coordinates":[-118.41325,34.20148]}},{"type":"Feature","properties":{"name":"Gardena Home Depot Location","address":"740 W 182nd St, Gardena, CA 90248, USA","site_type":"informal corner (NDLON map)","verification_status":"corroborated-business"},"geometry":{"type":"Point","coordinates":[-118.28665,33.8685]}},{"type":"Feature","properties":{"name":"Granada Hills U-Haul Location","address":"11062 Balboa Blvd, Granada Hills, CA 91344, USA","site_type":"informal corner (NDLON map)","verification_status":"unconfirmed"},"geometry":{"type":"Point","coordinates":[-118.50184,34.27169]}},{"type":"Feature","properties":{"name":"Hardware Apartment Supply Location","address":"7033 Topanga Canyon Blvd, Canoga Park, CA 91303, USA","site_type":"informal corner (NDLON map)","verification_status":"unconfirmed"},"geometry":{"type":"Point","coordinates":[-118.60645,34.19837]}},{"type":"Feature","properties":{"name":"Hawthorne Home Depot Location","address":"14603 Ocean Gate Ave, Hawthorne, CA 90250, USA","site_type":"informal corner (NDLON map)","verification_status":"corroborated-business"},"geometry":{"type":"Point","coordinates":[-118.36887,33.89837]}},{"type":"Feature","properties":{"name":"Hollywood Community Job Center (IDEPSCA)","address":"5107 W Sunset Blvd, Los Angeles, CA 90027","site_type":"formal city job center","verification_status":"corroborated-official"},"geometry":{"type":"Point","coordinates":[-118.3008,34.09818]}},{"type":"Feature","properties":{"name":"Hollywood Community Job Center - De Longpre","address":"5669 W De Longpre Ave, Los Angeles, CA 90028","site_type":"formal city job center","verification_status":"corroborated-official"},"geometry":{"type":"Point","coordinates":[-118.31232,34.09689]}},{"type":"Feature","properties":{"name":"Hollywood Home Depot Location","address":"5600 Sunset Blvd, Hollywood, CA 90028, USA","site_type":"informal corner (NDLON map)","verification_status":"corroborated-business"},"geometry":{"type":"Point","coordinates":[-118.31277,34.09758]}},{"type":"Feature","properties":{"name":"Home Depot Location","address":"2881 E Walnut St, Pasadena, CA 91107, USA","site_type":"informal corner (NDLON map)","verification_status":"corroborated-business"},"geometry":{"type":"Point","coordinates":[-118.09097,34.14804]}},{"type":"Feature","properties":{"name":"Home Depot Location","address":"1625 Mountain Ave, Monrovia, CA 91016, USA","site_type":"informal corner (NDLON map)","verification_status":"corroborated-business"},"geometry":{"type":"Point","coordinates":[-117.99025,34.13386]}},{"type":"Feature","properties":{"name":"Home Depot Location","address":"9700 Lower Azusa Rd, El Monte, CA 91731, USA","site_type":"informal corner (NDLON map)","verification_status":"corroborated-business"},"geometry":{"type":"Point","coordinates":[-118.05429,34.08823]}},{"type":"Feature","properties":{"name":"Home Depot Location","address":"3500 Market Pl Dr, Monterey Park, CA 91755, USA","site_type":"informal corner (NDLON map)","verification_status":"corroborated-business"},"geometry":{"type":"Point","coordinates":[-118.10148,34.03713]}},{"type":"Feature","properties":{"name":"Home Depot Location","address":"12975 W Jefferson Blvd, Los Angeles, CA 90066, USA","site_type":"informal corner (NDLON map)","verification_status":"corroborated-business"},"geometry":{"type":"Point","coordinates":[-118.42379,33.97665]}},{"type":"Feature","properties":{"name":"Inglewood Home Depot Location","address":"3363 W Century Blvd, Inglewood, CA 90303, USA","site_type":"informal corner (NDLON map)","verification_status":"unconfirmed"},"geometry":{"type":"Point","coordinates":[-118.33183,33.94562]}},{"type":"Feature","properties":{"name":"Inglewood Home Depot Location","address":"8801 S La Cienega Blvd, Inglewood, CA 90301, USA","site_type":"informal corner (NDLON map)","verification_status":"corroborated-business"},"geometry":{"type":"Point","coordinates":[-118.37085,33.95748]}},{"type":"Feature","properties":{"name":"Lakewood Home Depot Location","address":"5000 Hardwick St, Lakewood, CA 90712, USA","site_type":"informal corner (NDLON map)","verification_status":"corroborated-business"},"geometry":{"type":"Point","coordinates":[-118.13476,33.84891]}},{"type":"Feature","properties":{"name":"Lakewood Home Depot Location","address":"5000 Hardwick St, Lakewood, CA 90712, USA","site_type":"informal corner (NDLON map)","verification_status":"corroborated-business"},"geometry":{"type":"Point","coordinates":[-118.13476,33.84891]}},{"type":"Feature","properties":{"name":"Lancaster Home Depot Location","address":"44226 20th St W, Lancaster, CA 93534, USA","site_type":"informal corner (NDLON map)","verification_status":"corroborated-business"},"geometry":{"type":"Point","coordinates":[-118.16402,34.68648]}},{"type":"Feature","properties":{"name":"Long Beach Home Depot Location","address":"4045 Cherry Ave, Long Beach, CA 90807, USA","site_type":"informal corner (NDLON map)","verification_status":"unconfirmed"},"geometry":{"type":"Point","coordinates":[-118.1681,33.83202]}},{"type":"Feature","properties":{"name":"Long Beach Location","address":"3290 Cherry Ave, Long Beach, CA 90807, USA","site_type":"informal corner (NDLON map)","verification_status":"unconfirmed"},"geometry":{"type":"Point","coordinates":[-118.16723,33.81705]}},{"type":"Feature","properties":{"name":"Memorial Park Location","address":"222 Sierra Madre Blvd, Sierra Madre, CA 91024, USA","site_type":"informal corner (NDLON map)","verification_status":"unconfirmed"},"geometry":{"type":"Point","coordinates":[-118.05726,34.16128]}},{"type":"Feature","properties":{"name":"North Hollywood Day Labor Center","address":"11839 Sherman Way, North Hollywood, CA 91605","site_type":"formal city job center","verification_status":"corroborated-official"},"geometry":{"type":"Point","coordinates":[-118.39134,34.20125]}},{"type":"Feature","properties":{"name":"North Hollywood U-Haul Location","address":"8265 Lankershim Blvd, North Hollywood, CA 91605, USA","site_type":"informal corner (NDLON map)","verification_status":"unconfirmed"},"geometry":{"type":"Point","coordinates":[-118.38851,34.2212]}},{"type":"Feature","properties":{"name":"North Long Beach U-Haul Location","address":"5880 Paramount Blvd, Long Beach, CA 90805, USA","site_type":"informal corner (NDLON map)","verification_status":"unconfirmed"},"geometry":{"type":"Point","coordinates":[-118.15922,33.8624]}},{"type":"Feature","properties":{"name":"Northridge U-Haul Location","address":"18160 Parthenia St, Northridge, CA 91325, USA","site_type":"informal corner (NDLON map)","verification_status":"unconfirmed"},"geometry":{"type":"Point","coordinates":[-118.52936,34.22803]}},{"type":"Feature","properties":{"name":"Palmdale Home Depot Location","address":"38215 47th St E, Palmdale, CA 93552, USA","site_type":"informal corner (NDLON map)","verification_status":"unconfirmed"},"geometry":{"type":"Point","coordinates":[-118.0452,34.57931]}},{"type":"Feature","properties":{"name":"Palmdale Home Depot Location","address":"340 West Avenue P, Palmdale, CA 93551, USA","site_type":"informal corner (NDLON map)","verification_status":"corroborated-business"},"geometry":{"type":"Point","coordinates":[-118.13513,34.59916]}},{"type":"Feature","properties":{"name":"Paramount Home Depot Location","address":"6400 Alondra Blvd, Paramount, CA 90723, USA","site_type":"informal corner (NDLON map)","verification_status":"corroborated-business"},"geometry":{"type":"Point","coordinates":[-118.18559,33.88768]}},{"type":"Feature","properties":{"name":"Paramount Home Depot Location","address":"6400 Alondra Blvd, Paramount, CA 90723, USA","site_type":"informal corner (NDLON map)","verification_status":"corroborated-business"},"geometry":{"type":"Point","coordinates":[-118.18559,33.88768]}},{"type":"Feature","properties":{"name":"Pomona Home Depot Location","address":"2707 S Towne Ave, Pomona, CA 91766, USA","site_type":"informal corner (NDLON map)","verification_status":"unconfirmed"},"geometry":{"type":"Point","coordinates":[-117.74229,34.02208]}},{"type":"Feature","properties":{"name":"Public Storage Location","address":"6007 Venice Blvd., Los Angeles, CA 90034, USA","site_type":"informal corner (NDLON map)","verification_status":"unconfirmed"},"geometry":{"type":"Point","coordinates":[-118.37516,34.03727]}},{"type":"Feature","properties":{"name":"Residential Area","address":"40 E Villa St, Pasadena, CA 91103, USA","site_type":"informal corner (NDLON map)","verification_status":"unconfirmed"},"geometry":{"type":"Point","coordinates":[-118.1497,34.15384]}},{"type":"Feature","properties":{"name":"Rosemead Street Corner Location","address":"Garvey Ave & Kelburn Ave, Rosemead, CA 91770, USA","site_type":"informal corner (NDLON map)","verification_status":"unconfirmed"},"geometry":{"type":"Point","coordinates":[-118.09465,34.06263]}},{"type":"Feature","properties":{"name":"San Fernando Home Depot Location","address":"12960 Foothill Blvd, San Fernando, CA 91340, USA","site_type":"informal corner (NDLON map)","verification_status":"corroborated-business"},"geometry":{"type":"Point","coordinates":[-118.41868,34.29401]}},{"type":"Feature","properties":{"name":"Santa Clarita Home Depot Location","address":"20642 Golden Triangle Rd, Santa Clarita, CA 91351, USA","site_type":"informal corner (NDLON map)","verification_status":"corroborated-business"},"geometry":{"type":"Point","coordinates":[-118.49716,34.41891]}},{"type":"Feature","properties":{"name":"Santa Clarita U-Haul Location","address":"27150 Sierra Hwy, Santa Clarita, CA 91351, USA","site_type":"informal corner (NDLON map)","verification_status":"corroborated-business"},"geometry":{"type":"Point","coordinates":[-118.46122,34.40704]}},{"type":"Feature","properties":{"name":"Shilpark Paint Store Location","address":"1640 S Vermont Ave, Los Angeles, CA 90006, USA","site_type":"informal corner (NDLON map)","verification_status":"unconfirmed"},"geometry":{"type":"Point","coordinates":[-118.29126,34.04291]}},{"type":"Feature","properties":{"name":"Signal Hill Home Depot Location","address":"751 E Spring St, Signal Hill, CA 90755, USA","site_type":"informal corner (NDLON map)","verification_status":"corroborated-business"},"geometry":{"type":"Point","coordinates":[-118.18376,33.81366]}},{"type":"Feature","properties":{"name":"Signal Hill Home Depot Location","address":"2450 Cherry Ave, Signal Hill, CA 90755, USA","site_type":"informal corner (NDLON map)","verification_status":"corroborated-business"},"geometry":{"type":"Point","coordinates":[-118.16584,33.80172]}},{"type":"Feature","properties":{"name":"Slauson Home Depot Location","address":"1830 W Slauson Ave, Los Angeles, CA 90047, USA","site_type":"informal corner (NDLON map)","verification_status":"corroborated-business"},"geometry":{"type":"Point","coordinates":[-118.31131,33.98751]}},{"type":"Feature","properties":{"name":"Street Location","address":"South Mariposa Avenue & Olympic Blvd, Los Angeles, CA 90006, USA","site_type":"informal corner (NDLON map)","verification_status":"unconfirmed"},"geometry":{"type":"Point","coordinates":[-118.29896,34.05263]}},{"type":"Feature","properties":{"name":"Sun Valley U-Haul Location","address":"11022 Olinda St, Sun Valley, CA 91352, USA","site_type":"informal corner (NDLON map)","verification_status":"unconfirmed"},"geometry":{"type":"Point","coordinates":[-118.36971,34.22289]}},{"type":"Feature","properties":{"name":"Sunland Paint Store Location","address":"8710 Sunland Blvd, Sun Valley, CA 91352, USA","site_type":"informal corner (NDLON map)","verification_status":"unconfirmed"},"geometry":{"type":"Point","coordinates":[-118.36578,34.22801]}},{"type":"Feature","properties":{"name":"Sunset 7-11 Location","address":"5076 W Sunset Blvd, Los Angeles, CA 90027, USA","site_type":"informal corner (NDLON map)","verification_status":"corroborated-business"},"geometry":{"type":"Point","coordinates":[-118.30013,34.09764]}},{"type":"Feature","properties":{"name":"Trancas County Market Location","address":"Trancas Canyon Rd & California 1, Malibu, CA 90265, USA","site_type":"informal corner (NDLON map)","verification_status":"corroborated-business"},"geometry":{"type":"Point","coordinates":[-118.84366,34.03108]}},{"type":"Feature","properties":{"name":"U-Haul Location","address":"552 S Raymond Ave, Pasadena, CA 91105, USA","site_type":"informal corner (NDLON map)","verification_status":"corroborated-business"},"geometry":{"type":"Point","coordinates":[-118.14843,34.13692]}},{"type":"Feature","properties":{"name":"USA Gasoline Location","address":"Heathercliff Rd & California 1, Malibu, CA 90265, USA","site_type":"informal corner (NDLON map)","verification_status":"corroborated-business"},"geometry":{"type":"Point","coordinates":[-118.80869,34.02206]}},{"type":"Feature","properties":{"name":"Van Nuys U-Haul Location","address":"14601 Sherman Way, Van Nuys, CA 91405, USA","site_type":"informal corner (NDLON map)","verification_status":"unconfirmed"},"geometry":{"type":"Point","coordinates":[-118.45127,34.20193]}},{"type":"Feature","properties":{"name":"Van Nuys U-Haul Location","address":"6735 Van Nuys Blvd, Van Nuys, CA, USA","site_type":"informal corner (NDLON map)","verification_status":"unconfirmed"},"geometry":{"type":"Point","coordinates":[-118.44894,34.19315]}},{"type":"Feature","properties":{"name":"West Covina Home Depot Location","address":"2220 S Azusa Ave, West Covina, CA 91792, USA","site_type":"informal corner (NDLON map)","verification_status":"corroborated-business"},"geometry":{"type":"Point","coordinates":[-117.9108,34.0367]}},{"type":"Feature","properties":{"name":"West Hills Home Depot Location","address":"22855 Victory Blvd, West Hills, CA 91307, USA","site_type":"informal corner (NDLON map)","verification_status":"unconfirmed"},"geometry":{"type":"Point","coordinates":[-118.62467,34.18644]}},{"type":"Feature","properties":{"name":"West Slauson Home Depot Location","address":"4925 W Slauson Ave, Los Angeles, CA 90056, USA","site_type":"informal corner (NDLON map)","verification_status":"corroborated-business"},"geometry":{"type":"Point","coordinates":[-118.36464,33.98891]}},{"type":"Feature","properties":{"name":"Westlake Home Depot Location","address":"1675 Wilshire Blvd, Los Angeles, CA 90017, USA","site_type":"informal corner (NDLON map)","verification_status":"corroborated-business"},"geometry":{"type":"Point","coordinates":[-118.27075,34.0572]}},{"type":"Feature","properties":{"name":"Wilmington Community Job Center (IDEPSCA)","address":"1301 N Figueroa St, Wilmington, CA 90744","site_type":"formal city job center","verification_status":"corroborated-official"},"geometry":{"type":"Point","coordinates":[-118.28071,33.7854]}},{"type":"Feature","properties":{"name":"Woodland Hills Home Depot Location","address":"6345 Variel Ave, Woodland Hills, CA 91367, USA","site_type":"informal corner (NDLON map)","verification_status":"corroborated-business"},"geometry":{"type":"Point","coordinates":[-118.59421,34.18553]}}]}