{"type":"FeatureCollection","features":[{"type":"Feature","properties":{"chain":"Home Depot","name":"The Home Depot","group":"home improvement"},"geometry":{"type":"Point","coordinates":[-122.34286,47.71405]}},{"type":"Feature","properties":{"chain":"Lowe's","name":"Lowe's","group":"home improvement"},"geometry":{"type":"Point","coordinates":[-122.34738,47.72048]}},{"type":"Feature","properties":{"chain":"Lowe's","name":"Lowe's","group":"home improvement"},"geometry":{"type":"Point","coordinates":[-122.22777,47.31909]}},{"type":"Feature","properties":{"chain":"Lowe's","name":"Lowe's","group":"home improvement"},"geometry":{"type":"Point","coordinates":[-122.19952,47.50036]}},{"type":"Feature","properties":{"chain":"Home Depot","name":"The Home Depot","group":"home improvement"},"geometry":{"type":"Point","coordinates":[-122.03688,47.54703]}},{"type":"Feature","properties":{"chain":"Home Depot","name":"The Home Depot","group":"home improvement"},"geometry":{"type":"Point","coordinates":[-122.31098,47.28456]}},{"type":"Feature","properties":{"chain":"Home Depot","name":"The Home Depot","group":"home improvement"},"geometry":{"type":"Point","coordinates":[-122.33593,47.57838]}},{"type":"Feature","properties":{"chain":"Home Depot","name":"The Home Depot","group":"home improvement"},"geometry":{"type":"Point","coordinates":[-122.20579,47.47305]}},{"type":"Feature","properties":{"chain":"Lowe's","name":"Lowe's","group":"home improvement"},"geometry":{"type":"Point","coordinates":[-122.29765,47.57915]}},{"type":"Feature","properties":{"chain":"Home Depot","name":"The Home Depot","group":"home improvement"},"geometry":{"type":"Point","coordinates":[-122.36387,47.53636]}},{"type":"Feature","properties":{"chain":"Home Depot","name":"The Home Depot","group":"home improvement"},"geometry":{"type":"Point","coordinates":[-122.24851,47.44318]}},{"type":"Feature","properties":{"chain":"Lowe's","name":"Lowe's","group":"home improvement"},"geometry":{"type":"Point","coordinates":[-122.05655,47.54907]}},{"type":"Feature","properties":{"chain":"Lowe's","name":"Lowe's","group":"home improvement"},"geometry":{"type":"Point","coordinates":[-122.31545,47.28395]}},{"type":"Feature","properties":{"chain":"Lowe's","name":"Lowe's","group":"home improvement"},"geometry":{"type":"Point","coordinates":[-122.29428,47.38552]}},{"type":"Feature","properties":{"chain":"Home Depot","name":"The Home Depot","group":"home improvement"},"geometry":{"type":"Point","coordinates":[-122.34193,47.77613]}},{"type":"Feature","properties":{"chain":"Lowe's","name":"Lowe's","group":"home improvement"},"geometry":{"type":"Point","coordinates":[-122.25153,47.46028]}},{"type":"Feature","properties":{"chain":"Home Depot","name":"The Home Depot","group":"home improvement"},"geometry":{"type":"Point","coordinates":[-122.10274,47.66935]}},{"type":"Feature","properties":{"chain":"Home Depot","name":"The Home Depot","group":"home improvement"},"geometry":{"type":"Point","coordinates":[-122.18198,47.61241]}},{"type":"Feature","properties":{"chain":"Home Depot","name":"The Home Depot","group":"home improvement"},"geometry":{"type":"Point","coordinates":[-122.09737,47.35978]}},{"type":"Feature","properties":{"chain":"Home Depot","name":"The Home Depot","group":"home improvement"},"geometry":{"type":"Point","coordinates":[-122.17809,47.75996]}},{"type":"Feature","properties":{"chain":"Home Depot","name":"The Home Depot","group":"home improvement"},"geometry":{"type":"Point","coordinates":[-122.20096,47.36714]}},{"type":"Feature","properties":{"chain":"Best Buy","name":"Best Buy","group":"control big-box"},"geometry":{"type":"Point","coordinates":[-122.32484,47.70923]}},{"type":"Feature","properties":{"chain":"Target","name":"Target","group":"control big-box"},"geometry":{"type":"Point","coordinates":[-122.17342,47.57385]}},{"type":"Feature","properties":{"chain":"Target","name":"Target","group":"control big-box"},"geometry":{"type":"Point","coordinates":[-122.30543,47.31317]}},{"type":"Feature","properties":{"chain":"Target","name":"Target","group":"control big-box"},"geometry":{"type":"Point","coordinates":[-122.32517,47.70923]}},{"type":"Feature","properties":{"chain":"Target","name":"Target","group":"control big-box"},"geometry":{"type":"Point","coordinates":[-122.33866,47.60844]}},{"type":"Feature","properties":{"chain":"Walmart","name":"Walmart Neighborhood Market","group":"control big-box"},"geometry":{"type":"Point","coordinates":[-122.13963,47.6087]}},{"type":"Feature","properties":{"chain":"Kohl's","name":"Kohl's","group":"control big-box"},"geometry":{"type":"Point","coordinates":[-122.25851,47.44989]}},{"type":"Feature","properties":{"chain":"Best Buy","name":"Best Buy","group":"control big-box"},"geometry":{"type":"Point","coordinates":[-122.04131,47.54911]}},{"type":"Feature","properties":{"chain":"Kohl's","name":"Kohl's","group":"control big-box"},"geometry":{"type":"Point","coordinates":[-122.30657,47.31283]}},{"type":"Feature","properties":{"chain":"Target","name":"Target","group":"control big-box"},"geometry":{"type":"Point","coordinates":[-122.18507,47.61246]}},{"type":"Feature","properties":{"chain":"Target","name":"Target","group":"control big-box"},"geometry":{"type":"Point","coordinates":[-122.25887,47.45506]}},{"type":"Feature","properties":{"chain":"Kohl's","name":"Kohl's","group":"control big-box"},"geometry":{"type":"Point","coordinates":[-122.10479,47.67439]}},{"type":"Feature","properties":{"chain":"Walmart","name":"Walmart Supercenter","group":"control big-box"},"geometry":{"type":"Point","coordinates":[-122.22105,47.47221]}},{"type":"Feature","properties":{"chain":"Best Buy","name":"Best Buy","group":"control big-box"},"geometry":{"type":"Point","coordinates":[-122.31538,47.31826]}},{"type":"Feature","properties":{"chain":"Costco","name":"Costco","group":"control big-box"},"geometry":{"type":"Point","coordinates":[-122.0529,47.55129]}},{"type":"Feature","properties":{"chain":"Target","name":"Target","group":"control big-box"},"geometry":{"type":"Point","coordinates":[-122.05068,47.54182]}},{"type":"Feature","properties":{"chain":"Costco","name":"Costco","group":"control big-box"},"geometry":{"type":"Point","coordinates":[-122.30979,47.28696]}},{"type":"Feature","properties":{"chain":"Costco","name":"Costco","group":"control big-box"},"geometry":{"type":"Point","coordinates":[-122.33035,47.5654]}},{"type":"Feature","properties":{"chain":"Best Buy","name":"Best Buy","group":"control big-box"},"geometry":{"type":"Point","coordinates":[-122.18243,47.61401]}},{"type":"Feature","properties":{"chain":"Costco","name":"Costco","group":"control big-box"},"geometry":{"type":"Point","coordinates":[-122.24864,47.44541]}},{"type":"Feature","properties":{"chain":"Walmart","name":"Walmart Supercenter","group":"control big-box"},"geometry":{"type":"Point","coordinates":[-122.31012,47.29259]}},{"type":"Feature","properties":{"chain":"Walmart","name":"Walmart","group":"control big-box"},"geometry":{"type":"Point","coordinates":[-122.10851,47.36104]}},{"type":"Feature","properties":{"chain":"Costco","name":"Costco","group":"control big-box"},"geometry":{"type":"Point","coordinates":[-122.34485,47.77501]}},{"type":"Feature","properties":{"chain":"Costco","name":"Costco","group":"control big-box"},"geometry":{"type":"Point","coordinates":[-122.12192,47.35537]}},{"type":"Feature","properties":{"chain":"Kohl's","name":"Kohl's","group":"control big-box"},"geometry":{"type":"Point","coordinates":[-122.11323,47.35969]}},{"type":"Feature","properties":{"chain":"Walmart","name":"Walmart Supercenter","group":"control big-box"},"geometry":{"type":"Point","coordinates":[-122.24087,47.3014]}},{"type":"Feature","properties":{"chain":"Target","name":"Target","group":"control big-box"},"geometry":{"type":"Point","coordinates":[-122.10335,47.67255]}},{"type":"Feature","properties":{"chain":"Target","name":"Target","group":"control big-box"},"geometry":{"type":"Point","coordinates":[-122.20345,47.36601]}},{"type":"Feature","properties":{"chain":"Best Buy","name":"Best Buy","group":"control big-box"},"geometry":{"type":"Point","coordinates":[-122.24695,47.29823]}},{"type":"Feature","properties":{"chain":"Target","name":"Target","group":"control big-box"},"geometry":{"type":"Point","coordinates":[-122.19987,47.49626]}},{"type":"Feature","properties":{"chain":"Target","name":"Target","group":"control big-box"},"geometry":{"type":"Point","coordinates":[-122.3686,47.52221]}},{"type":"Feature","properties":{"chain":"Costco","name":"Costco","group":"control big-box"},"geometry":{"type":"Point","coordinates":[-122.09151,47.67411]}},{"type":"Feature","properties":{"chain":"Costco","name":"Costco","group":"control big-box"},"geometry":{"type":"Point","coordinates":[-122.18183,47.68073]}},{"type":"Feature","properties":{"chain":"Target","name":"Target","group":"control big-box"},"geometry":{"type":"Point","coordinates":[-122.15411,47.75908]}},{"type":"Feature","properties":{"chain":"Best Buy","name":"Best Buy","group":"control big-box"},"geometry":{"type":"Point","coordinates":[-122.2598,47.44761]}}]}