{"type":"FeatureCollection","features":[{"type":"Feature","properties":{"chain":"Lowe's","name":"Lowe's Outlet","group":"home improvement"},"geometry":{"type":"Point","coordinates":[-118.01497,34.14122]}},{"type":"Feature","properties":{"chain":"Lowe's","name":"Lowe's","group":"home improvement"},"geometry":{"type":"Point","coordinates":[-117.90428,34.10411]}},{"type":"Feature","properties":{"chain":"Lowe's","name":null,"group":"home improvement"},"geometry":{"type":"Point","coordinates":[-118.33387,33.80303]}},{"type":"Feature","properties":{"chain":"Lowe's","name":"Lowe's","group":"home improvement"},"geometry":{"type":"Point","coordinates":[-118.33545,34.04777]}},{"type":"Feature","properties":{"chain":"Home Depot","name":"The Home Depot","group":"home improvement"},"geometry":{"type":"Point","coordinates":[-118.14073,34.08508]}},{"type":"Feature","properties":{"chain":"Home Depot","name":"The Home Depot","group":"home improvement"},"geometry":{"type":"Point","coordinates":[-118.09024,34.14935]}},{"type":"Feature","properties":{"chain":"Home Depot","name":"The Home Depot","group":"home improvement"},"geometry":{"type":"Point","coordinates":[-118.10148,34.0372]}},{"type":"Feature","properties":{"chain":"Lowe's","name":"Lowe's","group":"home improvement"},"geometry":{"type":"Point","coordinates":[-118.0891,33.82789]}},{"type":"Feature","properties":{"chain":"Home Depot","name":"The Home Depot","group":"home improvement"},"geometry":{"type":"Point","coordinates":[-118.1346,33.84895]}},{"type":"Feature","properties":{"chain":"Home Depot","name":"The Home Depot","group":"home improvement"},"geometry":{"type":"Point","coordinates":[-118.22514,34.08375]}},{"type":"Feature","properties":{"chain":"Home Depot","name":"The Home Depot","group":"home improvement"},"geometry":{"type":"Point","coordinates":[-117.99008,34.13372]}},{"type":"Feature","properties":{"chain":"Lowe's","name":"Lowe's","group":"home improvement"},"geometry":{"type":"Point","coordinates":[-117.91624,33.99425]}},{"type":"Feature","properties":{"chain":"Home Depot","name":"The Home Depot","group":"home improvement"},"geometry":{"type":"Point","coordinates":[-118.29471,33.76522]}},{"type":"Feature","properties":{"chain":"Home Depot","name":"The Home Depot","group":"home improvement"},"geometry":{"type":"Point","coordinates":[-118.59427,34.18545]}},{"type":"Feature","properties":{"chain":"Home Depot","name":"The Home Depot","group":"home improvement"},"geometry":{"type":"Point","coordinates":[-118.18366,33.8136]}},{"type":"Feature","properties":{"chain":"Home Depot","name":"The Home Depot","group":"home improvement"},"geometry":{"type":"Point","coordinates":[-117.83136,34.11466]}},{"type":"Feature","properties":{"chain":"Home Depot","name":"The Home Depot","group":"home improvement"},"geometry":{"type":"Point","coordinates":[-118.33031,33.94825]}},{"type":"Feature","properties":{"chain":"Home Depot","name":"The Home Depot","group":"home improvement"},"geometry":{"type":"Point","coordinates":[-118.49949,34.21995]}},{"type":"Feature","properties":{"chain":"Home Depot","name":"The Home Depot","group":"home improvement"},"geometry":{"type":"Point","coordinates":[-118.49706,34.41892]}},{"type":"Feature","properties":{"chain":"Lowe's","name":"Lowe's","group":"home improvement"},"geometry":{"type":"Point","coordinates":[-118.14395,34.59935]}},{"type":"Feature","properties":{"chain":"Lowe's","name":"Lowe's","group":"home improvement"},"geometry":{"type":"Point","coordinates":[-118.14494,34.67352]}},{"type":"Feature","properties":{"chain":"Home Depot","name":"The Home Depot","group":"home improvement"},"geometry":{"type":"Point","coordinates":[-118.16589,33.80196]}},{"type":"Feature","properties":{"chain":"Lowe's","name":"Lowe's","group":"home improvement"},"geometry":{"type":"Point","coordinates":[-118.3244,33.92206]}},{"type":"Feature","properties":{"chain":"Home Depot","name":"The Home Depot","group":"home improvement"},"geometry":{"type":"Point","coordinates":[-118.13498,34.59893]}},{"type":"Feature","properties":{"chain":"Lowe's","name":"Lowe's","group":"home improvement"},"geometry":{"type":"Point","coordinates":[-118.04823,33.89639]}},{"type":"Feature","properties":{"chain":"Home Depot","name":"The Home Depot","group":"home improvement"},"geometry":{"type":"Point","coordinates":[-118.36922,33.89843]}},{"type":"Feature","properties":{"chain":"Home Depot","name":"The Home Depot","group":"home improvement"},"geometry":{"type":"Point","coordinates":[-118.44581,34.21386]}},{"type":"Feature","properties":{"chain":"Home Depot","name":"The Home Depot","group":"home improvement"},"geometry":{"type":"Point","coordinates":[-118.38362,34.19969]}},{"type":"Feature","properties":{"chain":"Home Depot","name":"The Home Depot","group":"home improvement"},"geometry":{"type":"Point","coordinates":[-118.36442,33.98887]}},{"type":"Feature","properties":{"chain":"Home Depot","name":"The Home Depot","group":"home improvement"},"geometry":{"type":"Point","coordinates":[-118.22218,33.87996]}},{"type":"Feature","properties":{"chain":"Home Depot","name":"The Home Depot","group":"home improvement"},"geometry":{"type":"Point","coordinates":[-118.41884,34.29431]}},{"type":"Feature","properties":{"chain":"Home Depot","name":"The Home Depot","group":"home improvement"},"geometry":{"type":"Point","coordinates":[-117.91023,34.08817]}},{"type":"Feature","properties":{"chain":"Home Depot","name":"The Home Depot","group":"home improvement"},"geometry":{"type":"Point","coordinates":[-118.28655,33.86859]}},{"type":"Feature","properties":{"chain":"Home Depot","name":"The Home Depot","group":"home improvement"},"geometry":{"type":"Point","coordinates":[-118.27407,33.80638]}},{"type":"Feature","properties":{"chain":"Home Depot","name":"The Home Depot","group":"home improvement"},"geometry":{"type":"Point","coordinates":[-118.31195,33.98722]}},{"type":"Feature","properties":{"chain":"Lowe's","name":"Lowe's","group":"home improvement"},"geometry":{"type":"Point","coordinates":[-118.31081,33.82541]}},{"type":"Feature","properties":{"chain":"Home Depot","name":"The Home Depot","group":"home improvement"},"geometry":{"type":"Point","coordinates":[-118.42375,33.97676]}},{"type":"Feature","properties":{"chain":"Home Depot","name":"The Home Depot","group":"home improvement"},"geometry":{"type":"Point","coordinates":[-118.18552,33.88763]}},{"type":"Feature","properties":{"chain":"Home Depot","name":"The Home Depot","group":"home improvement"},"geometry":{"type":"Point","coordinates":[-118.37091,33.95778]}},{"type":"Feature","properties":{"chain":"Home Depot","name":"The Home Depot","group":"home improvement"},"geometry":{"type":"Point","coordinates":[-118.31273,34.09743]}},{"type":"Feature","properties":{"chain":"Home Depot","name":"The Home Depot","group":"home improvement"},"geometry":{"type":"Point","coordinates":[-118.59401,34.21827]}},{"type":"Feature","properties":{"chain":"Lowe's","name":"Lowe's","group":"home improvement"},"geometry":{"type":"Point","coordinates":[-118.56111,34.23697]}},{"type":"Feature","properties":{"chain":"Lowe's","name":"Lowe's","group":"home improvement"},"geometry":{"type":"Point","coordinates":[-118.42434,34.27344]}},{"type":"Feature","properties":{"chain":"Lowe's","name":"Lowe's","group":"home improvement"},"geometry":{"type":"Point","coordinates":[-118.60757,34.22064]}},{"type":"Feature","properties":{"chain":"Home Depot","name":"The Home Depot","group":"home improvement"},"geometry":{"type":"Point","coordinates":[-118.62631,34.18932]}},{"type":"Feature","properties":{"chain":"Lowe's","name":"Lowe's","group":"home improvement"},"geometry":{"type":"Point","coordinates":[-118.04261,34.55453]}},{"type":"Feature","properties":{"chain":"Lowe's","name":"Lowe's","group":"home improvement"},"geometry":{"type":"Point","coordinates":[-118.12189,33.80775]}},{"type":"Feature","properties":{"chain":"Home Depot","name":"The Home Depot","group":"home improvement"},"geometry":{"type":"Point","coordinates":[-118.33073,33.80347]}},{"type":"Feature","properties":{"chain":"Lowe's","name":"Lowe's","group":"home improvement"},"geometry":{"type":"Point","coordinates":[-118.10286,33.984]}},{"type":"Feature","properties":{"chain":"Home Depot","name":"The Home Depot","group":"home improvement"},"geometry":{"type":"Point","coordinates":[-118.10109,33.88577]}},{"type":"Feature","properties":{"chain":"Home Depot","name":"The Home Depot","group":"home improvement"},"geometry":{"type":"Point","coordinates":[-118.00948,33.91848]}},{"type":"Feature","properties":{"chain":"Home Depot","name":"The Home Depot","group":"home improvement"},"geometry":{"type":"Point","coordinates":[-118.08137,33.99878]}},{"type":"Feature","properties":{"chain":"Home Depot","name":"The Home Depot","group":"home improvement"},"geometry":{"type":"Point","coordinates":[-118.1556,33.94987]}},{"type":"Feature","properties":{"chain":"Home Depot","name":"The Home Depot","group":"home improvement"},"geometry":{"type":"Point","coordinates":[-118.21481,33.98787]}},{"type":"Feature","properties":{"chain":"Home Depot","name":"The Home Depot","group":"home improvement"},"geometry":{"type":"Point","coordinates":[-118.13429,33.98696]}},{"type":"Feature","properties":{"chain":"Home Depot","name":"The Home Depot","group":"home improvement"},"geometry":{"type":"Point","coordinates":[-117.74166,34.02227]}},{"type":"Feature","properties":{"chain":"Lowe's","name":"Lowe's","group":"home improvement"},"geometry":{"type":"Point","coordinates":[-117.81924,34.10828]}},{"type":"Feature","properties":{"chain":"Home Depot","name":"The Home Depot","group":"home improvement"},"geometry":{"type":"Point","coordinates":[-117.91086,34.03686]}},{"type":"Feature","properties":{"chain":"Home Depot","name":"The Home Depot","group":"home improvement"},"geometry":{"type":"Point","coordinates":[-117.95769,34.07251]}},{"type":"Feature","properties":{"chain":"Home Depot","name":"The Home Depot","group":"home improvement"},"geometry":{"type":"Point","coordinates":[-118.05456,34.08833]}},{"type":"Feature","properties":{"chain":"Home Depot","name":"The Home Depot","group":"home improvement"},"geometry":{"type":"Point","coordinates":[-117.9078,33.99616]}},{"type":"Feature","properties":{"chain":"Home Depot","name":"The Home Depot","group":"home improvement"},"geometry":{"type":"Point","coordinates":[-118.04948,33.96488]}},{"type":"Feature","properties":{"chain":"Home Depot","name":"The Home Depot","group":"home improvement"},"geometry":{"type":"Point","coordinates":[-118.26772,34.14347]}},{"type":"Feature","properties":{"chain":"Home Depot","name":"The Home Depot","group":"home improvement"},"geometry":{"type":"Point","coordinates":[-118.29908,34.1698]}},{"type":"Feature","properties":{"chain":"Lowe's","name":"Lowe's","group":"home improvement"},"geometry":{"type":"Point","coordinates":[-118.33251,34.18953]}},{"type":"Feature","properties":{"chain":"Home Depot","name":"The Home Depot","group":"home improvement"},"geometry":{"type":"Point","coordinates":[-118.57405,34.44065]}},{"type":"Feature","properties":{"chain":"Lowe's","name":"Lowe's","group":"home improvement"},"geometry":{"type":"Point","coordinates":[-118.46092,34.39641]}},{"type":"Feature","properties":{"chain":"Lowe's","name":"Lowe's","group":"home improvement"},"geometry":{"type":"Point","coordinates":[-118.54046,34.4266]}},{"type":"Feature","properties":{"chain":"Home Depot","name":"The Home Depot","group":"home improvement"},"geometry":{"type":"Point","coordinates":[-118.04856,34.57657]}},{"type":"Feature","properties":{"chain":"Home Depot","name":"The Home Depot","group":"home improvement"},"geometry":{"type":"Point","coordinates":[-118.16416,34.68646]}},{"type":"Feature","properties":{"chain":"Home Depot","name":"The Home Depot","group":"home improvement"},"geometry":{"type":"Point","coordinates":[-118.27075,34.05712]}},{"type":"Feature","properties":{"chain":"Target","name":"Target","group":"control big-box"},"geometry":{"type":"Point","coordinates":[-118.25865,34.14295]}},{"type":"Feature","properties":{"chain":"Best Buy","name":"Best Buy","group":"control big-box"},"geometry":{"type":"Point","coordinates":[-118.40723,34.01632]}},{"type":"Feature","properties":{"chain":"Best Buy","name":"Best Buy","group":"control big-box"},"geometry":{"type":"Point","coordinates":[-118.08035,34.15106]}},{"type":"Feature","properties":{"chain":"Target","name":"Target","group":"control big-box"},"geometry":{"type":"Point","coordinates":[-118.08566,34.14692]}},{"type":"Feature","properties":{"chain":"Walmart","name":"Walmart","group":"control big-box"},"geometry":{"type":"Point","coordinates":[-118.62528,34.18818]}},{"type":"Feature","properties":{"chain":"Kohl's","name":"Kohl's","group":"control big-box"},"geometry":{"type":"Point","coordinates":[-118.62493,34.19126]}},{"type":"Feature","properties":{"chain":"Target","name":"Target","group":"control big-box"},"geometry":{"type":"Point","coordinates":[-118.4437,34.06276]}},{"type":"Feature","properties":{"chain":"Target","name":"Target","group":"control big-box"},"geometry":{"type":"Point","coordinates":[-118.39393,33.99912]}},{"type":"Feature","properties":{"chain":"Kohl's","name":"Kohl's","group":"control big-box"},"geometry":{"type":"Point","coordinates":[-118.46855,34.39277]}},{"type":"Feature","properties":{"chain":"Walmart","name":"Walmart","group":"control big-box"},"geometry":{"type":"Point","coordinates":[-118.35342,33.82784]}},{"type":"Feature","properties":{"chain":"Target","name":"Target","group":"control big-box"},"geometry":{"type":"Point","coordinates":[-118.39441,33.98498]}},{"type":"Feature","properties":{"chain":"Kohl's","name":"Kohl's","group":"control big-box"},"geometry":{"type":"Point","coordinates":[-118.16151,33.83106]}},{"type":"Feature","properties":{"chain":"Best Buy","name":"Best Buy","group":"control big-box"},"geometry":{"type":"Point","coordinates":[-118.39492,33.98447]}},{"type":"Feature","properties":{"chain":"Costco","name":"Costco Business Center","group":"control big-box"},"geometry":{"type":"Point","coordinates":[-118.34329,33.91839]}},{"type":"Feature","properties":{"chain":"Target","name":"Target","group":"control big-box"},"geometry":{"type":"Point","coordinates":[-118.22409,34.14151]}},{"type":"Feature","properties":{"chain":"Best Buy","name":"Best Buy","group":"control big-box"},"geometry":{"type":"Point","coordinates":[-118.55572,34.23385]}},{"type":"Feature","properties":{"chain":"Target","name":"Target","group":"control big-box"},"geometry":{"type":"Point","coordinates":[-117.97688,34.0695]}},{"type":"Feature","properties":{"chain":"Target","name":"Target","group":"control big-box"},"geometry":{"type":"Point","coordinates":[-118.34473,34.08971]}},{"type":"Feature","properties":{"chain":"Best Buy","name":"Best Buy","group":"control big-box"},"geometry":{"type":"Point","coordinates":[-118.34456,34.08937]}},{"type":"Feature","properties":{"chain":"Best Buy","name":"Best Buy","group":"control big-box"},"geometry":{"type":"Point","coordinates":[-117.93089,34.07127]}},{"type":"Feature","properties":{"chain":"Target","name":"Target","group":"control big-box"},"geometry":{"type":"Point","coordinates":[-117.7597,34.1095]}},{"type":"Feature","properties":{"chain":"Target","name":"Target","group":"control big-box"},"geometry":{"type":"Point","coordinates":[-118.26136,34.04914]}},{"type":"Feature","properties":{"chain":"Walmart","name":"Walmart Neighborhood Market","group":"control big-box"},"geometry":{"type":"Point","coordinates":[-117.80957,34.00122]}},{"type":"Feature","properties":{"chain":"Target","name":"Target","group":"control big-box"},"geometry":{"type":"Point","coordinates":[-117.75587,34.03489]}},{"type":"Feature","properties":{"chain":"Target","name":"Target","group":"control big-box"},"geometry":{"type":"Point","coordinates":[-117.88449,34.07384]}},{"type":"Feature","properties":{"chain":"Target","name":"Target","group":"control big-box"},"geometry":{"type":"Point","coordinates":[-118.37553,34.07491]}},{"type":"Feature","properties":{"chain":"Target","name":"Target","group":"control big-box"},"geometry":{"type":"Point","coordinates":[-118.28435,34.0257]}},{"type":"Feature","properties":{"chain":"Walmart","name":"Walmart Neighborhood Market","group":"control big-box"},"geometry":{"type":"Point","coordinates":[-118.01328,33.91855]}},{"type":"Feature","properties":{"chain":"Walmart","name":"Walmart Neighborhood Market","group":"control big-box"},"geometry":{"type":"Point","coordinates":[-118.44867,34.23447]}},{"type":"Feature","properties":{"chain":"Walmart","name":"Walmart Neighborhood Market","group":"control big-box"},"geometry":{"type":"Point","coordinates":[-118.26348,33.84839]}},{"type":"Feature","properties":{"chain":"Walmart","name":"Walmart Supercenter","group":"control big-box"},"geometry":{"type":"Point","coordinates":[-117.96349,34.07194]}},{"type":"Feature","properties":{"chain":"Walmart","name":"Walmart Neighborhood Market","group":"control big-box"},"geometry":{"type":"Point","coordinates":[-117.94979,34.04719]}},{"type":"Feature","properties":{"chain":"Walmart","name":"Walmart Supercenter","group":"control big-box"},"geometry":{"type":"Point","coordinates":[-117.9096,34.10262]}},{"type":"Feature","properties":{"chain":"Walmart","name":"Walmart Neighborhood Market","group":"control big-box"},"geometry":{"type":"Point","coordinates":[-118.35232,33.85529]}},{"type":"Feature","properties":{"chain":"Best Buy","name":"Best Buy","group":"control big-box"},"geometry":{"type":"Point","coordinates":[-118.53784,34.42876]}},{"type":"Feature","properties":{"chain":"Best Buy","name":"Best Buy","group":"control big-box"},"geometry":{"type":"Point","coordinates":[-118.32774,34.18851]}},{"type":"Feature","properties":{"chain":"Target","name":"Target","group":"control big-box"},"geometry":{"type":"Point","coordinates":[-118.28587,34.06352]}},{"type":"Feature","properties":{"chain":"Best Buy","name":"Best Buy","group":"control big-box"},"geometry":{"type":"Point","coordinates":[-118.1453,34.59748]}},{"type":"Feature","properties":{"chain":"Target","name":"Target","group":"control big-box"},"geometry":{"type":"Point","coordinates":[-118.16748,33.94814]}},{"type":"Feature","properties":{"chain":"Kohl's","name":"Kohl's","group":"control big-box"},"geometry":{"type":"Point","coordinates":[-117.83333,34.11711]}},{"type":"Feature","properties":{"chain":"Target","name":"Target","group":"control big-box"},"geometry":{"type":"Point","coordinates":[-118.34793,34.16884]}},{"type":"Feature","properties":{"chain":"Target","name":"Target","group":"control big-box"},"geometry":{"type":"Point","coordinates":[-117.98314,34.13794]}},{"type":"Feature","properties":{"chain":"Best Buy","name":"Best Buy","group":"control big-box"},"geometry":{"type":"Point","coordinates":[-117.9845,34.13647]}},{"type":"Feature","properties":{"chain":"Kohl's","name":"Kohl's","group":"control big-box"},"geometry":{"type":"Point","coordinates":[-118.14442,34.60679]}},{"type":"Feature","properties":{"chain":"Target","name":"Target","group":"control big-box"},"geometry":{"type":"Point","coordinates":[-118.35104,33.90148]}},{"type":"Feature","properties":{"chain":"Target","name":"Target","group":"control big-box"},"geometry":{"type":"Point","coordinates":[-118.79369,34.14757]}},{"type":"Feature","properties":{"chain":"Walmart","name":"Walmart Supercenter","group":"control big-box"},"geometry":{"type":"Point","coordinates":[-118.57639,34.44409]}},{"type":"Feature","properties":{"chain":"Best Buy","name":"Best Buy","group":"control big-box"},"geometry":{"type":"Point","coordinates":[-118.12178,34.03197]}},{"type":"Feature","properties":{"chain":"Target","name":"Target","group":"control big-box"},"geometry":{"type":"Point","coordinates":[-118.46686,34.1746]}},{"type":"Feature","properties":{"chain":"Best Buy","name":"Best Buy","group":"control big-box"},"geometry":{"type":"Point","coordinates":[-117.83699,34.11486]}},{"type":"Feature","properties":{"chain":"Target","name":"Target","group":"control big-box"},"geometry":{"type":"Point","coordinates":[-118.37899,34.04428]}},{"type":"Feature","properties":{"chain":"Target","name":"Target","group":"control big-box"},"geometry":{"type":"Point","coordinates":[-118.34427,34.06569]}},{"type":"Feature","properties":{"chain":"Target","name":"Target","group":"control big-box"},"geometry":{"type":"Point","coordinates":[-118.34384,34.04947]}},{"type":"Feature","properties":{"chain":"Target","name":"Target","group":"control big-box"},"geometry":{"type":"Point","coordinates":[-118.45878,34.04235]}},{"type":"Feature","properties":{"chain":"Target","name":"Target","group":"control big-box"},"geometry":{"type":"Point","coordinates":[-118.49265,34.01561]}},{"type":"Feature","properties":{"chain":"Target","name":"Target","group":"control big-box"},"geometry":{"type":"Point","coordinates":[-118.34261,34.10209]}},{"type":"Feature","properties":{"chain":"Target","name":"Target","group":"control big-box"},"geometry":{"type":"Point","coordinates":[-118.22509,34.12296]}},{"type":"Feature","properties":{"chain":"Target","name":"Target","group":"control big-box"},"geometry":{"type":"Point","coordinates":[-118.46636,34.25834]}},{"type":"Feature","properties":{"chain":"Target","name":"Target","group":"control big-box"},"geometry":{"type":"Point","coordinates":[-118.26587,34.0693]}},{"type":"Feature","properties":{"chain":"Target","name":"Target","group":"control big-box"},"geometry":{"type":"Point","coordinates":[-118.39746,34.18798]}},{"type":"Feature","properties":{"chain":"Target","name":"Target","group":"control big-box"},"geometry":{"type":"Point","coordinates":[-118.21748,33.9904]}},{"type":"Feature","properties":{"chain":"Target","name":"Target","group":"control big-box"},"geometry":{"type":"Point","coordinates":[-118.15065,34.01786]}},{"type":"Feature","properties":{"chain":"Target","name":"Target","group":"control big-box"},"geometry":{"type":"Point","coordinates":[-118.27934,34.07879]}},{"type":"Feature","properties":{"chain":"Target","name":"Target","group":"control big-box"},"geometry":{"type":"Point","coordinates":[-118.3528,33.96487]}},{"type":"Feature","properties":{"chain":"Target","name":"Target","group":"control big-box"},"geometry":{"type":"Point","coordinates":[-118.51272,34.16164]}},{"type":"Feature","properties":{"chain":"Best Buy","name":"Best Buy","group":"control big-box"},"geometry":{"type":"Point","coordinates":[-118.14092,33.8761]}},{"type":"Feature","properties":{"chain":"Target","name":"Target","group":"control big-box"},"geometry":{"type":"Point","coordinates":[-118.14726,34.09142]}},{"type":"Feature","properties":{"chain":"Costco","name":"Costco","group":"control big-box"},"geometry":{"type":"Point","coordinates":[-118.14868,34.08976]}},{"type":"Feature","properties":{"chain":"Kohl's","name":"Kohl's","group":"control big-box"},"geometry":{"type":"Point","coordinates":[-118.15337,34.07981]}},{"type":"Feature","properties":{"chain":"Kohl's","name":"Kohl's","group":"control big-box"},"geometry":{"type":"Point","coordinates":[-118.01033,34.13896]}},{"type":"Feature","properties":{"chain":"Walmart","name":"Walmart Supercenter","group":"control big-box"},"geometry":{"type":"Point","coordinates":[-118.08542,34.05036]}},{"type":"Feature","properties":{"chain":"Target","name":"Target","group":"control big-box"},"geometry":{"type":"Point","coordinates":[-118.07039,34.07414]}},{"type":"Feature","properties":{"chain":"Target","name":"Target","group":"control big-box"},"geometry":{"type":"Point","coordinates":[-118.1345,34.14642]}},{"type":"Feature","properties":{"chain":"Costco","name":"Costco","group":"control big-box"},"geometry":{"type":"Point","coordinates":[-118.10467,34.0373]}},{"type":"Feature","properties":{"chain":"Walmart","name":"Walmart Supercenter","group":"control big-box"},"geometry":{"type":"Point","coordinates":[-118.09062,33.82937]}},{"type":"Feature","properties":{"chain":"Best Buy","name":"Best Buy","group":"control big-box"},"geometry":{"type":"Point","coordinates":[-118.13445,33.85152]}},{"type":"Feature","properties":{"chain":"Costco","name":"Costco","group":"control big-box"},"geometry":{"type":"Point","coordinates":[-118.32434,34.18601]}},{"type":"Feature","properties":{"chain":"Walmart","name":"Walmart Supercenter","group":"control big-box"},"geometry":{"type":"Point","coordinates":[-118.14451,34.61164]}},{"type":"Feature","properties":{"chain":"Walmart","name":"Walmart","group":"control big-box"},"geometry":{"type":"Point","coordinates":[-117.9839,34.13408]}},{"type":"Feature","properties":{"chain":"Costco","name":"Costco","group":"control big-box"},"geometry":{"type":"Point","coordinates":[-117.92563,34.13154]}},{"type":"Feature","properties":{"chain":"Target","name":"Target","group":"control big-box"},"geometry":{"type":"Point","coordinates":[-118.50355,34.27302]}},{"type":"Feature","properties":{"chain":"Target","name":"Target","group":"control big-box"},"geometry":{"type":"Point","coordinates":[-118.50349,34.23446]}},{"type":"Feature","properties":{"chain":"Walmart","name":"Walmart Supercenter","group":"control big-box"},"geometry":{"type":"Point","coordinates":[-118.56687,34.27769]}},{"type":"Feature","properties":{"chain":"Best Buy","name":"Best Buy","group":"control big-box"},"geometry":{"type":"Point","coordinates":[-118.56899,34.27748]}},{"type":"Feature","properties":{"chain":"Target","name":"Target","group":"control big-box"},"geometry":{"type":"Point","coordinates":[-118.56016,34.23102]}},{"type":"Feature","properties":{"chain":"Kohl's","name":"Kohl's","group":"control big-box"},"geometry":{"type":"Point","coordinates":[-118.56016,34.23016]}},{"type":"Feature","properties":{"chain":"Target","name":"Target","group":"control big-box"},"geometry":{"type":"Point","coordinates":[-118.37129,34.18867]}},{"type":"Feature","properties":{"chain":"Target","name":"Target","group":"control big-box"},"geometry":{"type":"Point","coordinates":[-118.28614,33.80983]}},{"type":"Feature","properties":{"chain":"Target","name":"Target","group":"control big-box"},"geometry":{"type":"Point","coordinates":[-118.31015,34.09742]}},{"type":"Feature","properties":{"chain":"Costco","name":"Costco","group":"control big-box"},"geometry":{"type":"Point","coordinates":[-117.9226,33.9948]}},{"type":"Feature","properties":{"chain":"Target","name":"Target","group":"control big-box"},"geometry":{"type":"Point","coordinates":[-117.91916,33.99216]}},{"type":"Feature","properties":{"chain":"Target","name":"Target","group":"control big-box"},"geometry":{"type":"Point","coordinates":[-118.25983,33.84309]}},{"type":"Feature","properties":{"chain":"Costco","name":"Costco","group":"control big-box"},"geometry":{"type":"Point","coordinates":[-118.13697,33.85041]}},{"type":"Feature","properties":{"chain":"Best Buy","name":"Best Buy","group":"control big-box"},"geometry":{"type":"Point","coordinates":[-118.60043,34.18899]}},{"type":"Feature","properties":{"chain":"Target","name":"Target","group":"control big-box"},"geometry":{"type":"Point","coordinates":[-117.82381,34.10412]}},{"type":"Feature","properties":{"chain":"Target","name":"Target","group":"control big-box"},"geometry":{"type":"Point","coordinates":[-118.37382,34.02334]}},{"type":"Feature","properties":{"chain":"Costco","name":"Costco","group":"control big-box"},"geometry":{"type":"Point","coordinates":[-118.44719,33.993]}},{"type":"Feature","properties":{"chain":"Target","name":"Target","group":"control big-box"},"geometry":{"type":"Point","coordinates":[-118.29407,33.76049]}},{"type":"Feature","properties":{"chain":"Walmart","name":"Walmart Supercenter","group":"control big-box"},"geometry":{"type":"Point","coordinates":[-117.82585,34.11656]}},{"type":"Feature","properties":{"chain":"Costco","name":"Costco","group":"control big-box"},"geometry":{"type":"Point","coordinates":[-118.15182,34.66188]}},{"type":"Feature","properties":{"chain":"Target","name":"Target","group":"control big-box"},"geometry":{"type":"Point","coordinates":[-118.14636,34.59979]}},{"type":"Feature","properties":{"chain":"Target","name":"Target","group":"control big-box"},"geometry":{"type":"Point","coordinates":[-118.14896,34.67316]}},{"type":"Feature","properties":{"chain":"Target","name":"Target","group":"control big-box"},"geometry":{"type":"Point","coordinates":[-118.35785,33.86892]}},{"type":"Feature","properties":{"chain":"Target","name":"Target","group":"control big-box"},"geometry":{"type":"Point","coordinates":[-118.32139,33.92195]}},{"type":"Feature","properties":{"chain":"Target","name":"Target","group":"control big-box"},"geometry":{"type":"Point","coordinates":[-118.33351,33.94841]}},{"type":"Feature","properties":{"chain":"Best Buy","name":"Best Buy","group":"control big-box"},"geometry":{"type":"Point","coordinates":[-118.05617,33.86921]}},{"type":"Feature","properties":{"chain":"Kohl's","name":"Kohl's","group":"control big-box"},"geometry":{"type":"Point","coordinates":[-118.05812,33.87027]}},{"type":"Feature","properties":{"chain":"Walmart","name":"Walmart Supercenter","group":"control big-box"},"geometry":{"type":"Point","coordinates":[-118.06181,33.87243]}},{"type":"Feature","properties":{"chain":"Kohl's","name":"Kohl's","group":"control big-box"},"geometry":{"type":"Point","coordinates":[-117.83128,34.02819]}},{"type":"Feature","properties":{"chain":"Target","name":"Target","group":"control big-box"},"geometry":{"type":"Point","coordinates":[-118.39576,33.95556]}},{"type":"Feature","properties":{"chain":"Target","name":"Target","group":"control big-box"},"geometry":{"type":"Point","coordinates":[-117.90814,34.13633]}},{"type":"Feature","properties":{"chain":"Target","name":"Target","group":"control big-box"},"geometry":{"type":"Point","coordinates":[-118.12273,33.79802]}},{"type":"Feature","properties":{"chain":"Best Buy","name":"Best Buy","group":"control big-box"},"geometry":{"type":"Point","coordinates":[-118.34982,33.80579]}},{"type":"Feature","properties":{"chain":"Costco","name":"Costco","group":"control big-box"},"geometry":{"type":"Point","coordinates":[-118.16492,33.80311]}},{"type":"Feature","properties":{"chain":"Best Buy","name":"Best Buy","group":"control big-box"},"geometry":{"type":"Point","coordinates":[-118.36539,33.89741]}},{"type":"Feature","properties":{"chain":"Target","name":"Target","group":"control big-box"},"geometry":{"type":"Point","coordinates":[-118.11943,33.77442]}},{"type":"Feature","properties":{"chain":"Costco","name":"Costco Business Center","group":"control big-box"},"geometry":{"type":"Point","coordinates":[-118.3803,34.19951]}},{"type":"Feature","properties":{"chain":"Best Buy","name":"Best Buy","group":"control big-box"},"geometry":{"type":"Point","coordinates":[-118.21988,33.877]}},{"type":"Feature","properties":{"chain":"Kohl's","name":"Kohl's","group":"control big-box"},"geometry":{"type":"Point","coordinates":[-118.33252,33.79418]}},{"type":"Feature","properties":{"chain":"Best Buy","name":"Best Buy","group":"control big-box"},"geometry":{"type":"Point","coordinates":[-118.44792,34.15332]}},{"type":"Feature","properties":{"chain":"Walmart","name":"Walmart Neighborhood Market","group":"control big-box"},"geometry":{"type":"Point","coordinates":[-118.14774,33.92814]}},{"type":"Feature","properties":{"chain":"Target","name":"Target","group":"control big-box"},"geometry":{"type":"Point","coordinates":[-118.21956,33.88005]}},{"type":"Feature","properties":{"chain":"Costco","name":"Costco","group":"control big-box"},"geometry":{"type":"Point","coordinates":[-118.60321,34.18669]}},{"type":"Feature","properties":{"chain":"Target","name":"Target","group":"control big-box"},"geometry":{"type":"Point","coordinates":[-118.41789,34.2931]}},{"type":"Feature","properties":{"chain":"Target","name":"Target","group":"control big-box"},"geometry":{"type":"Point","coordinates":[-118.5847,34.16733]}},{"type":"Feature","properties":{"chain":"Target","name":"Target","group":"control big-box"},"geometry":{"type":"Point","coordinates":[-118.48644,34.02833]}},{"type":"Feature","properties":{"chain":"Costco","name":"Costco","group":"control big-box"},"geometry":{"type":"Point","coordinates":[-118.26392,34.12904]}},{"type":"Feature","properties":{"chain":"Best Buy","name":"Best Buy","group":"control big-box"},"geometry":{"type":"Point","coordinates":[-118.2653,34.12784]}},{"type":"Feature","properties":{"chain":"Costco","name":"Costco","group":"control big-box"},"geometry":{"type":"Point","coordinates":[-118.55023,34.23077]}},{"type":"Feature","properties":{"chain":"Walmart","name":"Walmart","group":"control big-box"},"geometry":{"type":"Point","coordinates":[-118.30029,33.85712]}},{"type":"Feature","properties":{"chain":"Kohl's","name":"Kohl's","group":"control big-box"},"geometry":{"type":"Point","coordinates":[-117.99779,33.9435]}},{"type":"Feature","properties":{"chain":"Target","name":"Target","group":"control big-box"},"geometry":{"type":"Point","coordinates":[-117.99656,33.94266]}},{"type":"Feature","properties":{"chain":"Best Buy","name":"Best Buy","group":"control big-box"},"geometry":{"type":"Point","coordinates":[-118.43954,34.03548]}},{"type":"Feature","properties":{"chain":"Target","name":"Target","group":"control big-box"},"geometry":{"type":"Point","coordinates":[-118.45933,34.2128]}},{"type":"Feature","properties":{"chain":"Best Buy","name":"Best Buy","group":"control big-box"},"geometry":{"type":"Point","coordinates":[-118.42385,34.272]}},{"type":"Feature","properties":{"chain":"Costco","name":"Costco","group":"control big-box"},"geometry":{"type":"Point","coordinates":[-118.42684,34.2719]}},{"type":"Feature","properties":{"chain":"Costco","name":"Costco","group":"control big-box"},"geometry":{"type":"Point","coordinates":[-118.4637,34.18135]}},{"type":"Feature","properties":{"chain":"Target","name":"Target","group":"control big-box"},"geometry":{"type":"Point","coordinates":[-118.62674,34.19033]}},{"type":"Feature","properties":{"chain":"Target","name":"Target","group":"control big-box"},"geometry":{"type":"Point","coordinates":[-118.31808,33.78903]}},{"type":"Feature","properties":{"chain":"Walmart","name":"Walmart Supercenter","group":"control big-box"},"geometry":{"type":"Point","coordinates":[-118.04227,34.55677]}},{"type":"Feature","properties":{"chain":"Costco","name":"Costco","group":"control big-box"},"geometry":{"type":"Point","coordinates":[-118.37355,33.89981]}},{"type":"Feature","properties":{"chain":"Target","name":"Target","group":"control big-box"},"geometry":{"type":"Point","coordinates":[-118.18151,33.81641]}},{"type":"Feature","properties":{"chain":"Best Buy","name":"Best Buy","group":"control big-box"},"geometry":{"type":"Point","coordinates":[-118.16824,33.80664]}},{"type":"Feature","properties":{"chain":"Walmart","name":"Walmart Supercenter","group":"control big-box"},"geometry":{"type":"Point","coordinates":[-118.14783,33.86139]}},{"type":"Feature","properties":{"chain":"Target","name":"Target","group":"control big-box"},"geometry":{"type":"Point","coordinates":[-118.16615,33.87706]}},{"type":"Feature","properties":{"chain":"Target","name":"Target","group":"control big-box"},"geometry":{"type":"Point","coordinates":[-118.14049,33.85265]}},{"type":"Feature","properties":{"chain":"Walmart","name":"Walmart Supercenter","group":"control big-box"},"geometry":{"type":"Point","coordinates":[-118.15871,33.83039]}},{"type":"Feature","properties":{"chain":"Target","name":"Target","group":"control big-box"},"geometry":{"type":"Point","coordinates":[-118.39435,33.88843]}},{"type":"Feature","properties":{"chain":"Target","name":"Target","group":"control big-box"},"geometry":{"type":"Point","coordinates":[-118.31684,33.88667]}},{"type":"Feature","properties":{"chain":"Kohl's","name":"Kohl's","group":"control big-box"},"geometry":{"type":"Point","coordinates":[-118.355,33.87014]}},{"type":"Feature","properties":{"chain":"Walmart","name":"Walmart Neighborhood Market","group":"control big-box"},"geometry":{"type":"Point","coordinates":[-118.36242,33.90013]}},{"type":"Feature","properties":{"chain":"Costco","name":"Costco","group":"control big-box"},"geometry":{"type":"Point","coordinates":[-118.33346,33.94281]}},{"type":"Feature","properties":{"chain":"Target","name":"Target","group":"control big-box"},"geometry":{"type":"Point","coordinates":[-118.06196,33.84692]}},{"type":"Feature","properties":{"chain":"Target","name":"Target","group":"control big-box"},"geometry":{"type":"Point","coordinates":[-118.0754,33.91837]}},{"type":"Feature","properties":{"chain":"Costco","name":"Costco Business Center","group":"control big-box"},"geometry":{"type":"Point","coordinates":[-118.14107,33.99433]}},{"type":"Feature","properties":{"chain":"Walmart","name":"Walmart Supercenter","group":"control big-box"},"geometry":{"type":"Point","coordinates":[-118.20821,33.9102]}},{"type":"Feature","properties":{"chain":"Target","name":"Target","group":"control big-box"},"geometry":{"type":"Point","coordinates":[-118.10731,33.92569]}},{"type":"Feature","properties":{"chain":"Target","name":"Target","group":"control big-box"},"geometry":{"type":"Point","coordinates":[-118.08661,34.00059]}},{"type":"Feature","properties":{"chain":"Walmart","name":"Walmart Supercenter","group":"control big-box"},"geometry":{"type":"Point","coordinates":[-118.18762,33.95484]}},{"type":"Feature","properties":{"chain":"Costco","name":"Costco","group":"control big-box"},"geometry":{"type":"Point","coordinates":[-118.10222,33.9198]}},{"type":"Feature","properties":{"chain":"Kohl's","name":"Kohl's","group":"control big-box"},"geometry":{"type":"Point","coordinates":[-118.11868,33.93639]}},{"type":"Feature","properties":{"chain":"Walmart","name":"Walmart Supercenter","group":"control big-box"},"geometry":{"type":"Point","coordinates":[-118.14533,33.9024]}},{"type":"Feature","properties":{"chain":"Target","name":"Target","group":"control big-box"},"geometry":{"type":"Point","coordinates":[-118.08733,33.85941]}},{"type":"Feature","properties":{"chain":"Target","name":"Target","group":"control big-box"},"geometry":{"type":"Point","coordinates":[-118.04826,33.93752]}},{"type":"Feature","properties":{"chain":"Walmart","name":"Walmart Supercenter","group":"control big-box"},"geometry":{"type":"Point","coordinates":[-118.0498,33.94083]}},{"type":"Feature","properties":{"chain":"Best Buy","name":"Best Buy","group":"control big-box"},"geometry":{"type":"Point","coordinates":[-118.12923,33.92557]}},{"type":"Feature","properties":{"chain":"Costco","name":"Costco","group":"control big-box"},"geometry":{"type":"Point","coordinates":[-118.79716,34.15187]}},{"type":"Feature","properties":{"chain":"Walmart","name":"Walmart","group":"control big-box"},"geometry":{"type":"Point","coordinates":[-117.75788,34.02923]}},{"type":"Feature","properties":{"chain":"Walmart","name":"Walmart Neighborhood Market","group":"control big-box"},"geometry":{"type":"Point","coordinates":[-117.73747,34.08856]}},{"type":"Feature","properties":{"chain":"Kohl's","name":"Kohl's","group":"control big-box"},"geometry":{"type":"Point","coordinates":[-117.76271,34.11389]}},{"type":"Feature","properties":{"chain":"Costco","name":"Costco","group":"control big-box"},"geometry":{"type":"Point","coordinates":[-117.82595,34.11187]}},{"type":"Feature","properties":{"chain":"Target","name":"Target","group":"control big-box"},"geometry":{"type":"Point","coordinates":[-117.91169,34.03308]}},{"type":"Feature","properties":{"chain":"Walmart","name":"Walmart Supercenter","group":"control big-box"},"geometry":{"type":"Point","coordinates":[-117.93229,33.99843]}},{"type":"Feature","properties":{"chain":"Target","name":"Target","group":"control big-box"},"geometry":{"type":"Point","coordinates":[-117.8211,34.00439]}},{"type":"Feature","properties":{"chain":"Best Buy","name":"Best Buy","group":"control big-box"},"geometry":{"type":"Point","coordinates":[-117.92266,33.99755]}},{"type":"Feature","properties":{"chain":"Target","name":"Target","group":"control big-box"},"geometry":{"type":"Point","coordinates":[-118.19875,34.2053]}},{"type":"Feature","properties":{"chain":"Target","name":"Target","group":"control big-box"},"geometry":{"type":"Point","coordinates":[-118.33075,34.18914]}},{"type":"Feature","properties":{"chain":"Walmart","name":"Walmart Supercenter","group":"control big-box"},"geometry":{"type":"Point","coordinates":[-118.32514,34.18821]}},{"type":"Feature","properties":{"chain":"Target","name":"Target","group":"control big-box"},"geometry":{"type":"Point","coordinates":[-118.56165,34.42111]}},{"type":"Feature","properties":{"chain":"Walmart","name":"Walmart Supercenter","group":"control big-box"},"geometry":{"type":"Point","coordinates":[-118.50604,34.41396]}},{"type":"Feature","properties":{"chain":"Kohl's","name":"Kohl's","group":"control big-box"},"geometry":{"type":"Point","coordinates":[-118.55771,34.4113]}},{"type":"Feature","properties":{"chain":"Costco","name":"Costco","group":"control big-box"},"geometry":{"type":"Point","coordinates":[-118.46165,34.40468]}},{"type":"Feature","properties":{"chain":"Walmart","name":"Walmart","group":"control big-box"},"geometry":{"type":"Point","coordinates":[-118.56925,34.3834]}},{"type":"Feature","properties":{"chain":"Walmart","name":"Walmart Supercenter","group":"control big-box"},"geometry":{"type":"Point","coordinates":[-118.09782,34.69247]}},{"type":"Feature","properties":{"chain":"Target","name":"Target","group":"control big-box"},"geometry":{"type":"Point","coordinates":[-118.41935,34.24515]}},{"type":"Feature","properties":{"chain":"Walmart","name":"Walmart Supercenter","group":"control big-box"},"geometry":{"type":"Point","coordinates":[-118.1286,33.92446]}},{"type":"Feature","properties":{"chain":"Target","name":"Target","group":"control big-box"},"geometry":{"type":"Point","coordinates":[-118.34562,33.82679]}},{"type":"Feature","properties":{"chain":"Walmart","name":"Walmart Neighborhood Market","group":"control big-box"},"geometry":{"type":"Point","coordinates":[-118.2001,34.61412]}},{"type":"Feature","properties":{"chain":"Costco","name":"Costco","group":"control big-box"},"geometry":{"type":"Point","coordinates":[-118.33369,33.80664]}},{"type":"Feature","properties":{"chain":"Target","name":"Target","group":"control big-box"},"geometry":{"type":"Point","coordinates":[-118.37665,33.77344]}},{"type":"Feature","properties":{"chain":"Target","name":"Target","group":"control big-box"},"geometry":{"type":"Point","coordinates":[-118.04852,34.57406]}},{"type":"Feature","properties":{"chain":"Target","name":"Target","group":"control big-box"},"geometry":{"type":"Point","coordinates":[-118.46483,34.39456]}},{"type":"Feature","properties":{"chain":"Target","name":"Target","group":"control big-box"},"geometry":{"type":"Point","coordinates":[-118.60261,34.19183]}},{"type":"Feature","properties":{"chain":"Walmart","name":"Walmart Supercenter","group":"control big-box"},"geometry":{"type":"Point","coordinates":[-118.10512,33.98499]}},{"type":"Feature","properties":{"chain":"Walmart","name":"Walmart Supercenter","group":"control big-box"},"geometry":{"type":"Point","coordinates":[-118.17406,34.6938]}},{"type":"Feature","properties":{"chain":"Walmart","name":"Walmart","group":"control big-box"},"geometry":{"type":"Point","coordinates":[-118.44964,34.22267]}}]}